[{"OBJECT_NAME":"STARLINK-4500","OBJECT_ID":"2022-097AB","EPOCH":"2026-03-09T12:10:23.670624","MEAN_MOTION":15.08850891,"ECCENTRICITY":0.00013719,"INCLINATION":53.217,"RA_OF_ASC_NODE":114.9413,"ARG_OF_PERICENTER":90.6407,"MEAN_ANOMALY":269.4743,"EPHEMERIS_TYPE":0,"CLASSIFICATION_TYPE":"U","NORAD_CAT_ID":53413,"ELEMENT_SET_NO":999,"REV_AT_EPOCH":19862,"BSTAR":0.00013816098,"MEAN_MOTION_DOT":1.912e-5,"MEAN_MOTION_DDOT":0},{"OBJECT_NAME":"COSMOS 886 DEB","OBJECT_ID":"1976-126BD","EPOCH":"2026-03-09T07:30:27.749952","MEAN_MOTION":13.37839737,"ECCENTRICITY":0.07700073,"INCLINATION":65.7949,"RA_OF_ASC_NODE":38.8664,"ARG_OF_PERICENTER":118.7434,"MEAN_ANOMALY":249.3183,"EPHEMERIS_TYPE":0,"CLASSIFICATION_TYPE":"U","NORAD_CAT_ID":9963,"ELEMENT_SET_NO":999,"REV_AT_EPOCH":34061,"BSTAR":0.00061461949,"MEAN_MOTION_DOT":1.837e-5,"MEAN_MOTION_DDOT":0}]
